OBJECT_NAME,OBJECT_ID,EPOCH,MEAN_MOTION,ECCENTRICITY,INCLINATION,RA_OF_ASC_NODE,ARG_OF_PERICENTER,MEAN_ANOMALY,EPHEMERIS_TYPE,CLASSIFICATION_TYPE,NORAD_CAT_ID,ELEMENT_SET_NO,REV_AT_EPOCH,BSTAR,MEAN_MOTION_DOT,MEAN_MOTION_DDOT
DUCHIFAT-1,2014-033M,2026-05-19T02:57:37.636128,15.59011194,.00062066,98.0491,194.3373,171.2568,188.8795,0,U,40021,999,65121,.78320212E-3,.61236E-3,0
NANOSATC-BR1,2014-033Q,2026-05-19T01:18:44.993952,15.30447318,.00016472,98.0737,168.8823,285.8827,74.2230,0,U,40024,999,64952,.36091967E-3,.10544E-3,0
QB50P1,2014-033R,2026-05-19T06:41:03.533568,15.17765963,.00077118,98.0974,148.4085,335.9762,24.1109,0,U,40025,999,64864,.24013209E-3,.4776E-4,0
DTUSAT-2,2014-033W,2026-05-19T05:44:34.129824,15.14600937,.0007232,98.0868,135.1394,347.5852,12.5198,0,U,40030,999,64830,.21778916E-3,.3948E-4,0
QB50P2,2014-033Y,2026-05-18T16:59:12.303456,15.14744084,.00056445,98.0753,133.7642,277.6790,82.3799,0,U,40032,999,64820,.22121616E-3,.4027E-4,0
PERSEUS-M1,2014-033AF,2026-05-19T06:24:34.114464,14.95525556,.00126778,97.9635,82.9294,39.9040,320.3109,0,U,40039,999,64631,.11929187E-3,.1263E-4,0
POLYITAN-1,2014-033AJ,2026-05-18T19:17:58.762176,15.32154281,.00056968,98.0962,162.3101,240.0236,120.0439,0,U,40042,999,64909,.38316913E-3,.11817E-3,0
TIGRISAT,2014-033AK,2026-05-18T09:39:30.507552,14.85021879,.00497258,97.7798,289.1062,170.8027,189.4111,0,U,40043,999,64120,.1639485E-3,.1375E-4,0
CANX-4,2014-034C,2026-05-19T04:07:51.770208,14.81204639,.00141029,98.3158,13.4156,103.0014,257.2773,0,U,40055,999,64023,.76736481E-4,.541E-5,0
CANX-5,2014-034D,2026-05-19T02:28:48.790272,14.81221869,.00140897,98.3161,13.3861,103.3863,256.8920,0,U,40056,999,63103,.82200689E-4,.584E-5,0
GONETS-M 10,2014-036C,2026-05-19T06:05:27.220992,12.42944675,.00214238,82.5098,325.6514,203.1305,156.8812,0,U,40063,999,53865,-.34833069E-3,-.38E-6,0
METEOR-M 2,2014-037A,2026-05-19T06:51:14.932800,14.21452930,.00068174,98.5100,116.0511,114.4697,245.7193,0,U,40069,999,61521,.10837063E-3,.195E-5,0
DX1,2014-037C,2026-05-19T06:46:20.161056,14.89882523,.0007649,98.3855,99.2362,17.4311,342.7166,0,U,40071,999,64180,.60605628E-4,.52E-5,0
UKUBE-1,2014-037F,2026-05-19T06:33:08.120160,15.13037046,.00004313,98.4242,139.5204,133.5446,226.5818,0,U,40074,999,64418,.30083909E-3,.5239E-4,0
GAOFEN-2,2014-049A,2026-05-19T07:47:30.117696,14.80863096,.00066884,98.0121,203.5571,337.9095,22.1828,0,U,40118,999,63496,-.11813825E-4,-.145E-5,0
BRITE-PL2 (HEWELIUSZ),2014-049B,2026-05-19T05:58:46.909920,14.94470930,.00136422,97.9066,251.0338,200.1054,159.9631,0,U,40119,999,63712,.13506848E-3,.14E-4,0
CBERS 4,2014-079A,2026-05-19T07:40:41.418048,14.35499819,.00021251,98.3546,197.0541,98.4399,261.7028,0,U,40336,999,59981,-.7067746E-5,-.63E-6,0
SMAP,2015-003A,2026-05-19T07:02:20.820192,14.63410471,.00012234,98.1283,146.7973,70.6753,289.4582,0,U,40376,999,60339,.53134622E-4,.228E-5,0
GONETS-M 11,2015-020A,2026-05-19T06:29:49.547904,12.42875700,.00174044,82.4890,49.0081,65.5712,294.7182,0,U,40552,999,50514,.11060062E-4,.12E-6,0
GONETS-M 12,2015-020B,2026-05-19T05:52:07.568256,12.42890183,.00163394,82.4923,50.1406,51.3915,308.8625,0,U,40553,999,50513,.34182828E-3,.57E-6,0
GONETS-M 13,2015-020C,2026-05-19T05:13:14.104704,12.42868894,.00147988,82.4886,48.7809,37.5689,322.6421,0,U,40554,999,50510,.94385268E-4,.23E-6,0
DMC3-FM1,2015-032A,2026-05-19T05:53:17.019168,14.85701878,.00064085,97.6493,5.5504,136.3872,223.7852,0,U,40715,999,58561,.6884401E-4,.546E-5,0
DMC3-FM2,2015-032B,2026-05-19T06:25:10.962336,14.85709281,.0006808,97.6550,7.1257,141.4283,218.7420,0,U,40716,999,58561,.11236751E-3,.924E-5,0
DMC3-FM3,2015-032C,2026-05-19T06:58:29.442720,14.85696008,.00058995,97.6602,8.8825,139.2881,220.8777,0,U,40717,999,58562,-.4695749E-5,-.92E-6,0
CARBONITE 1 (CBNT-1),2015-032D,2026-05-19T07:33:24.477696,14.83488083,.00153226,97.6494,318.5944,34.6142,325.6066,0,U,40718,999,58506,.12863856E-3,.1009E-4,0
LILACSAT-2,2015-049K,2026-05-19T05:43:13.785600,15.50407639,.00069109,97.4675,174.9973,16.5420,343.6056,0,U,40908,999,59126,.21922928E-3,.12379E-3,0
