DUCHIFAT-1              
1 40021U 14033M   26139.12335227  .00061236  00000+0  78320-3 0  9994
2 40021  98.0491 194.3373 0006206 171.2568 188.8795 15.59011194651211
NANOSATC-BR1            
1 40024U 14033Q   26139.05468743  .00010544  00000+0  36092-3 0  9995
2 40024  98.0737 168.8823 0001647 285.8827  74.2230 15.30447318649520
QB50P1                  
1 40025U 14033R   26139.27851312  .00004776  00000+0  24013-3 0  9998
2 40025  98.0974 148.4085 0007711 335.9762  24.1109 15.17765963648646
DTUSAT-2                
1 40030U 14033W   26139.23928391  .00003948  00000+0  21779-3 0  9998
2 40030  98.0868 135.1394 0007232 347.5852  12.5198 15.14600937648305
QB50P2                  
1 40032U 14033Y   26138.70778129  .00004027  00000+0  22122-3 0  9995
2 40032  98.0753 133.7642 0005644 277.6790  82.3799 15.14744084648202
PERSEUS-M1              
1 40039U 14033AF  26139.26706151  .00001263  00000+0  11929-3 0  9992
2 40039  97.9635  82.9294 0012677  39.9040 320.3109 14.95525556646314
POLYITAN-1              
1 40042U 14033AJ  26138.80415234  .00011817  00000+0  38317-3 0  9990
2 40042  98.0962 162.3101 0005696 240.0236 120.0439 15.32154281649092
TIGRISAT                
1 40043U 14033AK  26138.40243643  .00001375  00000+0  16395-3 0  9990
2 40043  97.7798 289.1062 0049725 170.8027 189.4111 14.85021879641203
CANX-4                  
1 40055U 14034C   26139.17212697  .00000541  00000+0  76736-4 0  9994
2 40055  98.3158  13.4156 0014102 103.0014 257.2773 14.81204639640233
CANX-5                  
1 40056U 14034D   26139.10334248  .00000584  00000+0  82201-4 0  9996
2 40056  98.3161  13.3861 0014089 103.3863 256.8920 14.81221869631030
GONETS-M 10             
1 40063U 14036C   26139.25378728 -.00000038  00000+0 -34833-3 0  9996
2 40063  82.5098 325.6514 0021423 203.1305 156.8812 12.42944675538651
METEOR-M 2              
1 40069U 14037A   26139.28558950  .00000195  00000+0  10837-3 0  9993
2 40069  98.5100 116.0511 0006817 114.4697 245.7193 14.21452930615210
DX1                     
1 40071U 14037C   26139.28217779  .00000520  00000+0  60606-4 0  9999
2 40071  98.3855  99.2362 0007649  17.4311 342.7166 14.89882523641804
UKUBE-1                 
1 40074U 14037F   26139.27301065  .00005239  00000+0  30084-3 0  9991
2 40074  98.4242 139.5204 0000431 133.5446 226.5818 15.13037046644189
GAOFEN-2                
1 40118U 14049A   26139.32465414 -.00000145  00000+0 -11814-4 0  9992
2 40118  98.0121 203.5571 0006688 337.9095  22.1828 14.80863096634960
BRITE-PL2 (HEWELIUSZ)   
1 40119U 14049B   26139.24915405  .00001400  00000+0  13507-3 0  9997
2 40119  97.9066 251.0338 0013642 200.1054 159.9631 14.94470930637128
CBERS 4                 
1 40336U 14079A   26139.31992382 -.00000063  00000+0 -70677-5 0  9997
2 40336  98.3546 197.0541 0002125  98.4399 261.7028 14.35499819599813
SMAP                    
1 40376U 15003A   26139.29329653  .00000228  00000+0  53135-4 0  9991
2 40376  98.1283 146.7973 0001223  70.6753 289.4582 14.63410471603396
GONETS-M 11             
1 40552U 15020A   26139.27071236  .00000012  00000+0  11060-4 0  9997
2 40552  82.4890  49.0081 0017404  65.5712 294.7182 12.42875700505147
GONETS-M 12             
1 40553U 15020B   26139.24453204  .00000057  00000+0  34183-3 0  9993
2 40553  82.4923  50.1406 0016339  51.3915 308.8625 12.42890183505133
GONETS-M 13             
1 40554U 15020C   26139.21752436  .00000023  00000+0  94385-4 0  9994
2 40554  82.4886  48.7809 0014798  37.5689 322.6421 12.42868894505102
DMC3-FM1                
1 40715U 15032A   26139.24533587  .00000546  00000+0  68844-4 0  9994
2 40715  97.6493   5.5504 0006408 136.3872 223.7852 14.85701878585617
DMC3-FM2                
1 40716U 15032B   26139.26748799  .00000924  00000+0  11237-3 0  9993
2 40716  97.6550   7.1257 0006808 141.4283 218.7420 14.85709281585613
DMC3-FM3                
1 40717U 15032C   26139.29061855 -.00000092  00000+0 -46957-5 0  9995
2 40717  97.6602   8.8825 0005899 139.2881 220.8777 14.85696008585621
CARBONITE 1 (CBNT-1)    
1 40718U 15032D   26139.31486664  .00001009  00000+0  12864-3 0  9993
2 40718  97.6494 318.5944 0015322  34.6142 325.6066 14.83488083585067
LILACSAT-2              
1 40908U 15049K   26139.23835400  .00012379  00000+0  21923-3 0  9997
2 40908  97.4675 174.9973 0006910  16.5420 343.6056 15.50407639591265
